CSUNSAT 1
1 42715U 98067LW  17250.54091384  .00030224  00000-0  41195-3 0  9992
2 42715  51.6405 346.3694 0003663 199.7892 160.2959 15.57249098 17336
UPSAT
1 42716U 98067LX  17249.73322823  .00026823  00000-0  35471-3 0  9997
2 42716  51.6411 349.9782 0004639 282.2384  77.8089 15.58122825 17346
SPACECUBE
1 42717U 98067LY  17250.52019368  .00027366  00000-0  36818-3 0  9993
2 42717  51.6407 346.2342 0004508 284.6597  75.3895 15.57650125 16706
HOOPOE
1 42718U 98067LZ  17250.51163107  .00030311  00000-0  40264-3 0  9998
2 42718  51.6405 346.1789 0004526 284.0171  76.0317 15.57934223 16702
CHALLENGER
1 42721U 98067MA  17250.51302869  .00038613  00000-0  50065-3 0  9995
2 42721  51.6402 346.1817 0007165 261.9637  98.0543 15.58441238 16400
NJUST-1
1 42722U 98067MB  17250.49228441  .00023372  00000-0  32371-3 0  9992
2 42722  51.6405 346.7957 0007119 258.7919 101.2273 15.56949286 16390
UNSW-ECO
1 42723U 98067MC  17250.15273162  .00030250  00000-0  40626-3 0  9991
2 42723  51.6410 348.2795 0007065 258.9281 101.0916 15.57625705 16321
DUTHSAT
1 42724U 98067MD  17249.88073894  .00036198  00000-0  47398-3 0  9990
2 42724  51.6410 349.4608 0006323 262.8743  97.1531 15.58216358 16207
LILACSAT-1
1 42725U 98067ME  17250.49342476  .00026522  00000-0  36461-3 0  9994
2 42725  51.6407 346.8051 0006155 263.5552  96.4739 15.57078927 16294
NSIGHT-1
1 42726U 98067MF  17250.45539544  .00013427  00000-0  19483-3 0  9990
2 42726  51.6414 347.3014 0006098 261.5443  98.4858 15.56141929 16297
SNUSAT-1
1 42727U 98067MG  17250.49165913  .00025112  00000-0  34461-3 0  9997
2 42727  51.6400 346.7866 0007079 221.3045 138.7412 15.57153870 16263
QBITO
1 42728U 98067MH  17250.54242962  .00034289  00000-0  46264-3 0  9993
2 42728  51.6416 346.3862 0003629 277.7305  82.3275 15.57455883 16118
AALTO-2
1 42729U 98067MJ  17250.47808152  .00028772  00000-0  38967-3 0  9996
2 42729  51.6408 346.7033 0003625 277.1344  82.9236 15.57447316 16112
SUSAT
1 42730U 98067MK  17250.48236590  .00028492  00000-0  38798-3 0  9991
2 42730  51.6408 346.7303 0003631 274.2082  85.8495 15.57306741 16102
I-INSPIRE II
1 42731U 98067ML  17250.53427100  .00035294  00000-0  46965-3 0  9990
2 42731  51.6401 346.3203 0006185 208.8496 151.2155 15.57799291 16163
POLYITAN-2-SAU
1 42732U 98067MM  17250.53960184  .00034797  00000-0  46774-3 0  9990
2 42732  51.6399 346.3549 0006399 207.2086 152.8572 15.57534609 16168
SNUSAT-1B
1 42733U 98067MN  17250.54716662  .00033718  00000-0  45666-3 0  9993
2 42733  51.6404 346.4068 0006307 208.5541 151.5106 15.57349396 16168
EXALTA-1
1 42734U 98067MP  17250.53448402  .00037117  00000-0  49384-3 0  9995
2 42734  51.6401 346.3225 0008120 234.1809 125.8429 15.57763567 16114
AOXIANG-1
1 42735U 98067MQ  17250.16884827  .00022466  00000-0  31081-3 0  9996
2 42735  51.6407 348.3843 0007735 253.3793 106.6350 15.57001221 17477
BEEAGLESAT
1 42736U 98067MR  17250.48757991  .00025947  00000-0  35576-3 0  9993
2 42736  51.6406 346.7636 0007575 254.7351 105.2804 15.57152782 16215
ATLANTIS
1 42737U 98067MS  17250.15736468  .00056320  00000-0  68868-3 0  9993
2 42737  51.6390 347.5531 0007427 260.3948  99.6206 15.59820636 16069
PROGRESS-MS 06
1 42756U 17033A   17249.53778935  .00005765  00000-0  94404-4 0  9996
2 42756  51.6446 352.7864 0004122 233.2548 306.7473 15.54082944 13098
ISS DEB (ROSA)
1 42813U 98067MT  17250.52045029  .00071522  00000-0  92329-3 0  9995
2 42813  51.6400 346.9807 0003762 254.1520 105.9058 15.58309641 11507
SOYUZ-MS 05
1 42898U 17043A   17249.53778935  .00005765  00000-0  94404-4 0  9994
2 42898  51.6446 352.7864 0004122 233.2548 306.7473 15.54082944 74407
